{"type": "FeatureCollection", "features": [ {"type": "Feature", "properties": {"norad_id": 34117, "name": "COSMOS 2251 DEB", "group": "cosmos-2251-debris", "lat": -63.56379229903148, "lon": -67.3162712353887, "alt_km": 778.6455559986016, "timestamp": "2025-12-21T09:37:23.048638+00:00", "meta": {"OBJECT_NAME": "COSMOS 2251 DEB", "OBJECT_ID": "1993-036KN", "EPOCH": "2025-12-21T04:56:19.228704", "MEAN_MOTION": 14.40041831, "ECCENTRICITY": 0.0054904, "INCLINATION": 74.0394, "RA_OF_ASC_NODE": 328.1863, "ARG_OF_PERICENTER": 42.1555, "MEAN_ANOMALY": 318.3802, "EPHEMERIS_TYPE": 0, "CLASSIFICATION_TYPE": "U", "NORAD_CAT_ID": 34117, "ELEMENT_SET_NO": 999, "REV_AT_EPOCH": 88245, "BSTAR": 0.00046655, "MEAN_MOTION_DOT": 1.471e-05, "MEAN_MOTION_DDOT": 0}, "tle": {"line1": "1 34117U 93036KN  25355.20577811  .00001471  00000+0  46655-3 0  9999", "line2": "2 34117  74.0394 328.1863 0054904  42.1555 318.3802 14.40041831882458"}}, "geometry": {"type": "Point", "coordinates": [-67.3162712353887, -63.56379229903148]}}, {"type": "Feature", "properties": {"norad_id": 34118, "name": "COSMOS 2251 DEB", "group": "cosmos-2251-debris", "lat": -62.4043016049095, "lon": 85.18955881770182, "alt_km": 633.1522094290294, "timestamp": "2025-12-21T09:37:23.048648+00:00", "meta": {"OBJECT_NAME": "COSMOS 2251 DEB", "OBJECT_ID": "1993-036KP", "EPOCH": "2025-12-21T00:59:57.709824", "MEAN_MOTION": 14.94198698, "ECCENTRICITY": 0.0060079, "INCLINATION": 73.9516, "RA_OF_ASC_NODE": 232.5004, "ARG_OF_PERICENTER": 60.6229, "MEAN_ANOMALY": 54.65, "EPHEMERIS_TYPE": 0, "CLASSIFICATION_TYPE": "U", "NORAD_CAT_ID": 34118, "ELEMENT_SET_NO": 999, "REV_AT_EPOCH": 89300, "BSTAR": 0.00094567, "MEAN_MOTION_DOT": 0.00010477, "MEAN_MOTION_DDOT": 0}, "tle": {"line1": "1 34118U 93036KP  25355.04164016  .00010477  00000+0  94567-3 0  9992", "line2": "2 34118  73.9516 232.5004 0060079  60.6229  54.6500 14.94198698893002"}}, "geometry": {"type": "Point", "coordinates": [85.18955881770182, -62.4043016049095]}}, {"type": "Feature", "properties": {"norad_id": 34120, "name": "COSMOS 2251 DEB", "group": "cosmos-2251-debris", "lat": -22.655969333994115, "lon": 28.10125577884709, "alt_km": 1035.7524612362404, "timestamp": "2025-12-21T09:37:23.048658+00:00", "meta": {"OBJECT_NAME": "COSMOS 2251 DEB", "OBJECT_ID": "1993-036KR", "EPOCH": "2025-12-21T00:50:49.320384", "MEAN_MOTION": 13.9869252, "ECCENTRICITY": 0.0182311, "INCLINATION": 73.9903, "RA_OF_ASC_NODE": 201.8516, "ARG_OF_PERICENTER": 27.692, "MEAN_ANOMALY": 135.1651, "EPHEMERIS_TYPE": 0, "CLASSIFICATION_TYPE": "U", "NORAD_CAT_ID": 34120, "ELEMENT_SET_NO": 999, "REV_AT_EPOCH": 86096, "BSTAR": 0.00023925, "MEAN_MOTION_DOT": 3.73e-06, "MEAN_MOTION_DDOT": 0}, "tle": {"line1": "1 34120U 93036KR  25355.03529306  .00000373  00000+0  23925-3 0  9995", "line2": "2 34120  73.9903 201.8516 0182311  27.6920 135.1651 13.98692520860964"}}, "geometry": {"type": "Point", "coordinates": [28.10125577884709, -22.655969333994115]}}, {"type": "Feature", "properties": {"norad_id": 34121, "name": "COSMOS 2251 DEB", "group": "cosmos-2251-debris", "lat": -22.37577775986509, "lon": -90.88507575869126, "alt_km": 900.3622978279209, "timestamp": "2025-12-21T09:37:23.048668+00:00", "meta": {"OBJECT_NAME": "COSMOS 2251 DEB", "OBJECT_ID": "1993-036KS", "EPOCH": "2025-12-21T00:52:51.557376", "MEAN_MOTION": 13.91956958, "ECCENTRICITY": 0.0240793, "INCLINATION": 73.9924, "RA_OF_ASC_NODE": 82.9519, "ARG_OF_PERICENTER": 286.6615, "MEAN_ANOMALY": 254.7048, "EPHEMERIS_TYPE": 0, "CLASSIFICATION_TYPE": "U", "NORAD_CAT_ID": 34121, "ELEMENT_SET_NO": 999, "REV_AT_EPOCH": 85240, "BSTAR": 0.0008837, "MEAN_MOTION_DOT": 1.403e-05, "MEAN_MOTION_DDOT": 0}, "tle": {"line1": "1 34121U 93036KS  25355.03670784  .00001403  00000+0  88370-3 0  9993", "line2": "2 34121  73.9924  82.9519 0240793 286.6615 254.7048 13.91956958852405"}}, "geometry": {"type": "Point", "coordinates": [-90.88507575869126, -22.37577775986509]}}, {"type": "Feature", "properties": {"norad_id": 34122, "name": "COSMOS 2251 DEB", "group": "cosmos-2251-debris", "lat": -33.05425001265461, "lon": -67.29320424947092, "alt_km": 729.3058589781358, "timestamp": "2025-12-21T09:37:23.048678+00:00", "meta": {"OBJECT_NAME": "COSMOS 2251 DEB", "OBJECT_ID": "1993-036KT", "EPOCH": "2025-12-19T17:59:46.157856", "MEAN_MOTION": 14.65126194, "ECCENTRICITY": 0.0084721, "INCLINATION": 74.0362, "RA_OF_ASC_NODE": 105.1466, "ARG_OF_PERICENTER": 0.0124, "MEAN_ANOMALY": 149.8471, "EPHEMERIS_TYPE": 0, "CLASSIFICATION_TYPE": "U", "NORAD_CAT_ID": 34122, "ELEMENT_SET_NO": 999, "REV_AT_EPOCH": 88787, "BSTAR": 0.00069383656, "MEAN_MOTION_DOT": 3.9e-05, "MEAN_MOTION_DDOT": 0}, "tle": {"line1": "1 34122U 93036KT  25353.74983979  .00003900  00000+0  69384-3 0  9991", "line2": "2 34122  74.0362 105.1466 0084721   0.0124 149.8471 14.65126194887879"}}, "geometry": {"type": "Point", "coordinates": [-67.29320424947092, -33.05425001265461]}}, {"type": "Feature", "properties": {"norad_id": 34127, "name": "COSMOS 2251 DEB", "group": "cosmos-2251-debris", "lat": 18.66049882210556, "lon": -157.28472050451472, "alt_km": 752.0208804893036, "timestamp": "2025-12-21T09:37:23.048688+00:00", "meta": {"OBJECT_NAME": "COSMOS 2251 DEB", "OBJECT_ID": "1993-036KY", "EPOCH": "2025-12-21T04:06:31.489920", "MEAN_MOTION": 14.31614218, "ECCENTRICITY": 0.0114848, "INCLINATION": 74.1791, "RA_OF_ASC_NODE": 28.6253, "ARG_OF_PERICENTER": 226.9764, "MEAN_ANOMALY": 191.0133, "EPHEMERIS_TYPE": 0, "CLASSIFICATION_TYPE": "U", "NORAD_CAT_ID": 34127, "ELEMENT_SET_NO": 999, "REV_AT_EPOCH": 86892, "BSTAR": 0.001032, "MEAN_MOTION_DOT": 2.93e-05, "MEAN_MOTION_DDOT": 0}, "tle": {"line1": "1 34127U 93036KY  25355.17119780  .00002930  00000+0  10320-2 0  9993", "line2": "2 34127  74.1791  28.6253 0114848 226.9764 191.0133 14.31614218868928"}}, "geometry": {"type": "Point", "coordinates": [-157.28472050451472, 18.66049882210556]}}, {"type": "Feature", "properties": {"norad_id": 34128, "name": "COSMOS 2251 DEB", "group": "cosmos-2251-debris", "lat": 19.54728614552826, "lon": -75.10926136852483, "alt_km": 544.3795773435004, "timestamp": "2025-12-21T09:37:23.048698+00:00", "meta": {"OBJECT_NAME": "COSMOS 2251 DEB", "OBJECT_ID": "1993-036KZ", "EPOCH": "2025-12-21T03:25:20.177760", "MEAN_MOTION": 15.01457349, "ECCENTRICITY": 0.002599, "INCLINATION": 73.9994, "RA_OF_ASC_NODE": 279.5704, "ARG_OF_PERICENTER": 29.8425, "MEAN_ANOMALY": 34.737, "EPHEMERIS_TYPE": 0, "CLASSIFICATION_TYPE": "U", "NORAD_CAT_ID": 34128, "ELEMENT_SET_NO": 999, "REV_AT_EPOCH": 89293, "BSTAR": 0.0010034, "MEAN_MOTION_DOT": 0.00013042, "MEAN_MOTION_DDOT": 0}, "tle": {"line1": "1 34128U 93036KZ  25355.14259465  .00013042  00000+0  10034-2 0  9994", "line2": "2 34128  73.9994 279.5704 0025990  29.8425  34.7370 15.01457349892934"}}, "geometry": {"type": "Point", "coordinates": [-75.10926136852483, 19.54728614552826]}}, {"type": "Feature", "properties": {"norad_id": 34129, "name": "COSMOS 2251 DEB", "group": "cosmos-2251-debris", "lat": -40.84831134655227, "lon": 156.9078188987299, "alt_km": 671.9479423462535, "timestamp": "2025-12-21T09:37:23.048708+00:00", "meta": {"OBJECT_NAME": "COSMOS 2251 DEB", "OBJECT_ID": "1993-036LA", "EPOCH": "2025-12-20T06:35:18.877056", "MEAN_MOTION": 14.75860485, "ECCENTRICITY": 0.00332842, "INCLINATION": 74.0352, "RA_OF_ASC_NODE": 324.7802, "ARG_OF_PERICENTER": 43.9199, "MEAN_ANOMALY": 316.4612, "EPHEMERIS_TYPE": 0, "CLASSIFICATION_TYPE": "U", "NORAD_CAT_ID": 34129, "ELEMENT_SET_NO": 999, "REV_AT_EPOCH": 61409, "BSTAR": 0.00098354282, "MEAN_MOTION_DOT": 6.785e-05, "MEAN_MOTION_DDOT": 0}, "tle": {"line1": "1 34129U 93036LA  25354.27452404  .00006785  00000+0  98354-3 0  9994", "line2": "2 34129  74.0352 324.7802 0033284  43.9199 316.4612 14.75860485614094"}}, "geometry": {"type": "Point", "coordinates": [156.9078188987299, -40.84831134655227]}}, {"type": "Feature", "properties": {"norad_id": 34136, "name": "COSMOS 2251 DEB", "group": "cosmos-2251-debris", "lat": 27.458641343797098, "lon": -163.01333011273877, "alt_km": 567.9639779298723, "timestamp": "2025-12-21T09:37:23.048718+00:00", "meta": {"OBJECT_NAME": "COSMOS 2251 DEB", "OBJECT_ID": "1993-036LH", "EPOCH": "2025-12-20T20:45:28.784736", "MEAN_MOTION": 14.80127198, "ECCENTRICITY": 0.00852276, "INCLINATION": 74.0198, "RA_OF_ASC_NODE": 26.6074, "ARG_OF_PERICENTER": 147.3711, "MEAN_ANOMALY": 28.6822, "EPHEMERIS_TYPE": 0, "CLASSIFICATION_TYPE": "U", "NORAD_CAT_ID": 34136, "ELEMENT_SET_NO": 999, "REV_AT_EPOCH": 90130, "BSTAR": 0.00022743139, "MEAN_MOTION_DOT": 1.799e-05, "MEAN_MOTION_DDOT": 0}, "tle": {"line1": "1 34136U 93036LH  25354.86491649  .00001799  00000+0  22743-3 0  9990", "line2": "2 34136  74.0198  26.6074 0085227 147.3711  28.6822 14.80127198901303"}}, "geometry": {"type": "Point", "coordinates": [-163.01333011273877, 27.458641343797098]}}, {"type": "Feature", "properties": {"norad_id": 34139, "name": "COSMOS 2251 DEB", "group": "cosmos-2251-debris", "lat": -57.72113635376521, "lon": -149.4050222290605, "alt_km": 672.8859304119196, "timestamp": "2025-12-21T09:37:23.048728+00:00", "meta": {"OBJECT_NAME": "COSMOS 2251 DEB", "OBJECT_ID": "1993-036LL", "EPOCH": "2025-12-20T22:27:19.402272", "MEAN_MOTION": 14.5915977, "ECCENTRICITY": 0.0042514, "INCLINATION": 74.0303, "RA_OF_ASC_NODE": 238.4405, "ARG_OF_PERICENTER": 308.1952, "MEAN_ANOMALY": 67.0502, "EPHEMERIS_TYPE": 0, "CLASSIFICATION_TYPE": "U", "NORAD_CAT_ID": 34139, "ELEMENT_SET_NO": 999, "REV_AT_EPOCH": 88269, "BSTAR": 0.00082369, "MEAN_MOTION_DOT": 3.901e-05, "MEAN_MOTION_DDOT": 0}, "tle": {"line1": "1 34139U 93036LL  25354.93564123  .00003901  00000+0  82369-3 0  9996", "line2": "2 34139  74.0303 238.4405 0042514 308.1952  67.0502 14.59159770882690"}}, "geometry": {"type": "Point", "coordinates": [-149.4050222290605, -57.72113635376521]}}]}